ONEWEB-0534             
1 55797U 23029B   23323.93660846  .00000058  00000+0  11080-3 0  9999
2 55797  87.9181 101.6531 0001404  89.4609 270.6685 13.20778747 37034
ONEWEB-0556             
1 55798U 23029C   23323.86713084 -.00000046  00000+0 -14550-3 0  9999
2 55798  87.9171 101.6613 0002095  69.5477 290.5881 13.20768488 37023
ONEWEB-0562             
1 55799U 23029D   23324.08180438 -.00000108  00000+0 -29834-3 0  9996
2 55799  87.9170 101.6078 0002718  80.7801 279.3640 13.20777993 37733
ONEWEB-0563             
1 55800U 23029E   23324.15121975 -.00000063  00000+0 -18788-3 0  9994
2 55800  87.9166 101.6091 0001655  83.2390 276.8932 13.20768681 37736
ONEWEB-0564             
1 55801U 23029F   23323.91667824 -.00007570  00000+0 -18662-1 0  9995
2 55801  87.9174 101.6386 0001784  91.1576 264.2560 13.20781881  5268
ONEWEB-0638             
1 55802U 23029G   23323.88173540  .00000224  00000+0  56981-3 0  9994
2 55802  87.8956 116.9227 0001503  64.8694 295.2591 13.14503645 35866
ONEWEB-0639             
1 55803U 23029H   23323.97948453  .00000016  00000+0  81027-5 0  9998
2 55803  87.9181 132.1109 0000148   7.9897 352.1238 13.19723773 35585
ONEWEB-0640             
1 55804U 23029J   23323.89123856  .00000227  00000+0  57852-3 0  9993
2 55804  87.8936 116.9253 0001303  51.4784 308.6463 13.14499886 35885
